NORAD_CAT_ID,OBJECT_NAME,OBJECT_TYPE,EPOCH,MEAN_MOTION,ECCENTRICITY,INCLINATION,RA_OF_ASC_NODE,ARG_OF_PERICENTER,MEAN_ANOMALY,BSTAR,MEAN_MOTION_DOT,MEAN_MOTION_DDOT,TLE_LINE0,TLE_LINE1,TLE_LINE2,SEMIMAJOR_AXIS,PERIOD,APOGEE,PERIGEE,DECAYED
53262.0,STARLINK-4085,PAYLOAD,2023-07-02 11:05:45,15.0884142,6.71e-05,53.2164,279.0219,76.2885,283.8182,5.1173e-05,5.27e-06,0.0,0 STARLINK-4085,1 53262U 22086W   23183.46232660  .00000527  00000-0  51173-4 0  9997,2 53262  53.2164 279.0219 0000671  76.2885 283.8182 15.08841420 52755,6917.876,95.437,540.205,539.277,0.0
53262.0,STARLINK-4085,PAYLOAD,2023-07-03 12:31:54,15.08846691,5.85e-05,53.2167,274.2637,72.909,287.1966,0.00015932,2.249e-05,0.0,0 STARLINK-4085,1 53262U 22086W   23184.52216104  .00002249  00000-0  15932-3 0  9995,2 53262  53.2167 274.2637 0000585  72.9090 287.1966 15.08846691 52914,6917.86,95.437,540.13,539.32,0.0
53262.0,STARLINK-4085,PAYLOAD,2023-07-04 12:22:42,15.08842155,6.4e-05,53.2162,269.8035,75.9031,284.2032,7.036e-05,8.32e-06,0.0,0 STARLINK-4085,1 53262U 22086W   23185.51576629  .00000832  00000-0  70360-4 0  9999,2 53262  53.2162 269.8035 0000640  75.9031 284.2032 15.08842155 53061,6917.874,95.437,540.182,539.296,0.0
53262.0,STARLINK-4085,PAYLOAD,2023-07-05 21:45:48,15.0884234,5.79e-05,53.2156,263.5589,68.0564,292.049,3.404e-05,2.54e-06,0.0,0 STARLINK-4085,1 53262U 22086W   23186.90680616  .00000254  00000-0  34040-4 0  9998,2 53262  53.2156 263.5589 0000579  68.0564 292.0490 15.08842340 53278,6917.873,95.437,540.139,539.338,0.0
53262.0,STARLINK-4085,PAYLOAD,2023-07-06 05:42:44,15.08836737,5.55e-05,53.2158,262.0714,74.4876,285.6177,0.00012042,1.629e-05,0.0,0 STARLINK-4085,1 53262U 22086W   23187.23801050  .00001629  00000-0  12042-3 0  9996,2 53262  53.2158 262.0714 0000555  74.4876 285.6177 15.08836737 53324,6917.89,95.438,540.139,539.371,0.0
53262.0,STARLINK-4085,PAYLOAD,2023-07-06 16:50:25,15.08847287,6.19e-05,53.2158,259.9907,87.3719,272.7344,0.00022847,3.351e-05,0.0,0 STARLINK-4085,1 53262U 22086W   23187.70168578  .00003351  00000-0  22847-3 0  9997,2 53262  53.2158 259.9907 0000619  87.3719 272.7344 15.08847287 53395,6917.858,95.437,540.151,539.295,0.0
53262.0,STARLINK-4085,PAYLOAD,2023-07-07 03:58:07,15.08842876,5.44e-05,53.2153,257.9099,69.0082,291.0968,0.00018973,2.733e-05,0.0,0 STARLINK-4085,1 53262U 22086W   23188.16536802  .00002733  00000-0  18973-3 0  9995,2 53262  53.2153 257.9099 0000544  69.0082 291.0968 15.08842876 53460,6917.872,95.437,540.113,539.36,0.0
53262.0,STARLINK-4085,PAYLOAD,2023-07-08 08:35:04,15.08842369,5.68e-05,53.215,252.5568,87.9255,272.1802,9.4461e-05,1.216e-05,0.0,0 STARLINK-4085,1 53262U 22086W   23189.35768703  .00001216  00000-0  94461-4 0  9996,2 53262  53.2150 252.5568 0000568  87.9255 272.1802 15.08842369 53640,6917.873,95.437,540.131,539.345,0.0
53262.0,STARLINK-4085,PAYLOAD,2023-07-09 11:36:37,15.08835624,5.75e-05,53.2149,247.5008,72.8231,287.2825,3.6251e-05,2.89e-06,0.0,0 STARLINK-4085,1 53262U 22086W   23190.48377224  .00000289  00000-0  36251-4 0  9998,2 53262  53.2149 247.5008 0000575  72.8231 287.2825 15.08835624 53813,6917.894,95.438,540.157,539.361,0.0
53262.0,STARLINK-4085,PAYLOAD,2023-07-10 14:38:11,15.08847408,5.21e-05,53.2154,242.4457,88.3041,271.8011,0.00024809,3.664e-05,0.0,0 STARLINK-4085,1 53262U 22086W   23191.60985029  .00003664  00000-0  24809-3 0  9996,2 53262  53.2154 242.4457 0000521  88.3041 271.8011 15.08847408 53980,6917.858,95.437,540.083,539.362,0.0
53262.0,STARLINK-4085,PAYLOAD,2023-07-11 03:21:16,15.08840816,6.69e-05,53.215,240.0664,73.5755,286.5311,0.0001897,2.733e-05,0.0,0 STARLINK-4085,1 53262U 22086W   23192.13977439  .00002733  00000-0  18970-3 0  9999,2 53262  53.2150 240.0664 0000669  73.5755 286.5311 15.08840816 54063,6917.878,95.438,540.206,539.28,0.0
53262.0,STARLINK-4085,PAYLOAD,2023-07-12 09:33:35,15.08846382,7.32e-05,53.2155,234.4162,77.4879,282.6195,0.00010287,1.35e-05,0.0,0 STARLINK-4085,1 53262U 22086W   23193.39832999  .00001350  00000-0  10287-3 0  9996,2 53262  53.2155 234.4162 0000732  77.4879 282.6195 15.08846382 54251,6917.861,95.437,540.232,539.219,0.0
53262.0,STARLINK-4085,PAYLOAD,2023-07-13 07:49:00,15.08836143,8.52e-05,53.2159,230.2535,76.343,283.7657,-2.0313e-05,-6.11e-06,0.0,0 STARLINK-4085,1 53262U 22086W   23194.32569508 -.00000611  00000-0 -20313-4 0  9996,2 53262  53.2159 230.2535 0000852  76.3430 283.7657 15.08836143 54391,6917.892,95.438,540.347,539.168,0.0
53262.0,STARLINK-4085,PAYLOAD,2023-07-14 07:39:47,15.08852948,7.9e-05,53.216,225.793,97.2114,262.8968,-0.00018314,-3.202e-05,0.0,0 STARLINK-4085,1 53262U 22086W   23195.31929418 -.00003202  00000-0 -18314-3 0  9992,2 53262  53.2160 225.7930 0000790  97.2114 262.8968 15.08852948 54544,6917.841,95.437,540.252,539.159,0.0
53262.0,STARLINK-4085,PAYLOAD,2023-07-14 12:25:56,15.08840777,7.58e-05,53.2158,224.9012,82.3509,277.7569,5.6624e-05,6.14e-06,0.0,0 STARLINK-4085,1 53262U 22086W   23195.51801662  .00000614  00000-0  56624-4 0  9993,2 53262  53.2158 224.9012 0000758  82.3509 277.7569 15.08840777 54572,6917.878,95.438,540.267,539.219,0.0
53262.0,STARLINK-4085,PAYLOAD,2023-07-15 18:38:16,15.0883894,6.73e-05,53.215,219.2484,74.705,285.4016,6.9537e-05,8.19e-06,0.0,0 STARLINK-4085,1 53262U 22086W   23196.77657633  .00000819  00000-0  69537-4 0  9993,2 53262  53.2150 219.2484 0000673  74.7050 285.4016 15.08838940 54769,6917.884,95.438,540.214,539.283,0.0
53262.0,STARLINK-4085,PAYLOAD,2023-07-17 00:50:36,15.08840431,7.05e-05,53.2141,213.6004,72.9195,287.1874,7.0599e-05,8.36e-06,0.0,0 STARLINK-4085,1 53262U 22086W   23198.03513933  .00000836  00000-0  70599-4 0  9997,2 53262  53.2141 213.6004 0000705  72.9195 287.1874 15.08840431 54951,6917.879,95.438,540.232,539.256,0.0
53262.0,STARLINK-4085,PAYLOAD,2023-07-18 07:02:55,15.08843699,6.72e-05,53.2157,207.9504,75.4011,284.7056,0.00013868,1.92e-05,0.0,0 STARLINK-4085,1 53262U 22086W   23199.29369630  .00001920  00000-0  13868-3 0  9999,2 53262  53.2157 207.9504 0000672  75.4011 284.7056 15.08843699 55143,6917.869,95.437,540.199,539.269,0.0
53262.0,STARLINK-4085,PAYLOAD,2023-07-19 00:32:10,15.0883735,7.45e-05,53.2159,204.6798,70.7735,289.3338,4.1957e-05,3.8e-06,0.0,0 STARLINK-4085,1 53262U 22086W   23200.02234240  .00000380  00000-0  41957-4 0  9991,2 53262  53.2159 204.6798 0000745  70.7735 289.3338 15.08837350 55259,6917.888,95.438,540.269,539.238,0.0
53262.0,STARLINK-4085,PAYLOAD,2023-07-21 00:13:44,15.08836048,7.68e-05,53.2162,195.7589,76.8313,283.2765,5.0193e-05,5.11e-06,0.0,0 STARLINK-4085,1 53262U 22086W   23202.00954355  .00000511  00000-0  50193-4 0  9995,2 53262  53.2162 195.7589 0000768  76.8313 283.2765 15.08836048 55558,6917.892,95.438,540.289,539.226,0.0
53262.0,STARLINK-4085,PAYLOAD,2023-07-24 07:43:01,15.0884633,7.49e-05,53.2157,180.8906,75.1836,284.9239,-0.00011295,-2.085e-05,0.0,0 STARLINK-4085,1 53262U 22086W   23205.32154804 -.00002085  00000-0 -11295-3 0  9993,2 53262  53.2157 180.8906 0000749  75.1836 284.9239 15.08846330 56236,6917.861,95.437,540.244,539.208,0.0
53262.0,STARLINK-4085,PAYLOAD,2023-07-26 07:24:35,15.08845013,0.0001007,53.2166,171.9698,76.0909,284.0195,7.8453e-05,9.61e-06,0.0,0 STARLINK-4085,1 53262U 22086W   23207.30874475  .00000961  00000-0  78453-4 0  9995,2 53262  53.2166 171.9698 0001007  76.0909 284.0195 15.08845013 56536,6917.865,95.437,540.427,539.033,0.0
53262.0,STARLINK-4085,PAYLOAD,2023-07-27 00:53:50,15.08843921,9.3e-05,53.2154,168.6961,94.669,265.4409,4.1519e-05,3.73e-06,0.0,0 STARLINK-4085,1 53262U 22086W   23208.03738579  .00000373  00000-0  41519-4 0  9990,2 53262  53.2154 168.6961 0000930  94.6690 265.4409 15.08843921 56465,6917.868,95.437,540.377,539.09,0.0
53262.0,STARLINK-4085,PAYLOAD,2023-07-27 07:15:22,15.08859752,0.0001448,53.2168,167.5081,107.9024,252.2126,-2.1454e-05,-6.3e-06,0.0,0 STARLINK-4085,1 53262U 22086W   23208.30234091 -.00000630  00000-0 -21454-4 0  9994,2 53262  53.2168 167.5081 0001448 107.9024 252.2126 15.08859752 56509,6917.82,95.436,540.687,538.683,0.0
53262.0,STARLINK-4085,PAYLOAD,2023-07-27 21:33:51,15.08830431,0.0001314,53.2185,164.8382,74.9982,285.1155,3.4193e-06,-2.33e-06,0.0,0 STARLINK-4085,1 53262U 22086W   23208.89851674 -.00000233  00000-0  34193-5 0  9993,2 53262  53.2185 164.8382 0001314  74.9982 285.1155 15.08830431 56779,6917.91,95.438,540.684,538.866,0.0
53262.0,STARLINK-4085,PAYLOAD,2023-07-28 00:44:38,15.08829464,0.0001191,53.2169,164.2365,103.5083,256.6042,-6.8484e-05,-1.377e-05,0.0,0 STARLINK-4085,1 53262U 22086W   23209.03099868 -.00001377  00000-0 -68484-4 0  9999,2 53262  53.2169 164.2365 0001191 103.5083 256.6042 15.08829464 56615,6917.913,95.438,540.602,538.954,0.0
53262.0,STARLINK-4085,PAYLOAD,2023-07-28 13:27:43,15.08835846,0.0001101,53.2166,161.8592,87.1438,272.9681,-1.5291e-05,-5.31e-06,0.0,0 STARLINK-4085,1 53262U 22086W   23209.56091613 -.00000531  00000-0 -15291-4 0  9996,2 53262  53.2166 161.8592 0001101  87.1438 272.9681 15.08835846 56878,6917.893,95.438,540.52,538.996,0.0
53262.0,STARLINK-4085,PAYLOAD,2023-07-29 02:10:47,15.08846814,0.0001077,53.2164,159.4803,84.6988,275.4127,5.9881e-05,6.66e-06,0.0,0 STARLINK-4085,1 53262U 22086W   23210.09082799  .00000666  00000-0  59881-4 0  9991,2 53262  53.2164 159.4803 0001077  84.6988 275.4127 15.08846814 56777,6917.86,95.437,540.47,538.98,0.0
53262.0,STARLINK-4085,PAYLOAD,2023-07-29 13:18:30,15.08829972,0.0001131,53.2171,157.3986,78.2543,281.8576,0.00020898,3.039e-05,0.0,0 STARLINK-4085,1 53262U 22086W   23210.55451597  .00003039  00000-0  20898-3 0  9990,2 53262  53.2171 157.3986 0001131  78.2543 281.8576 15.08829972 56844,6917.911,95.438,540.558,538.994,0.0
53262.0,STARLINK-4085,PAYLOAD,2023-07-31 01:52:22,15.08843537,0.0001496,53.2182,150.5631,109.2322,250.8833,6.4705e-06,-1.85e-06,0.0,0 STARLINK-4085,1 53262U 22086W   23212.07803788 -.00000185  00000-0  64705-5 0  9999,2 53262  53.2182 150.5631 0001496 109.2322 250.8833 15.08843537 57073,6917.87,95.437,540.769,538.7,0.0
